{"type":"FeatureCollection","features":[{"type":"Feature","properties":{"name":"Afghanistan","country":"AF"},"geometry":{"type":"Point","coordinates":[66.0084,33.8363]}},{"type":"Feature","properties":{"name":"Akrotiri Sovereign Base Area","country":"-99"},"geometry":{"type":"Point","coordinates":[32.934,34.6318]}},{"type":"Feature","properties":{"name":"Aland","country":"AX"},"geometry":{"type":"Point","coordinates":[19.9437,60.2288]}},{"type":"Feature","properties":{"name":"Albania","country":"AL"},"geometry":{"type":"Point","coordinates":[20.0538,41.1425]}},{"type":"Feature","properties":{"name":"Algeria","country":"DZ"},"geometry":{"type":"Point","coordinates":[2.6531,28.1489]}},{"type":"Feature","properties":{"name":"American Samoa","country":"AS"},"geometry":{"type":"Point","coordinates":[-170.7162,-14.3048]}},{"type":"Feature","properties":{"name":"Andorra","country":"AD"},"geometry":{"type":"Point","coordinates":[1.5608,42.5413]}},{"type":"Feature","properties":{"name":"Angola","country":"AO"},"geometry":{"type":"Point","coordinates":[17.5643,-12.3305]}},{"type":"Feature","properties":{"name":"Anguilla","country":"AI"},"geometry":{"type":"Point","coordinates":[-63.0574,18.2245]}},{"type":"Feature","properties":{"name":"Antarctica","country":"AQ"},"geometry":{"type":"Point","coordinates":[20.821,-80.5623]}},{"type":"Feature","properties":{"name":"Antigua and Barbuda","country":"AG"},"geometry":{"type":"Point","coordinates":[-61.7896,17.0748]}},{"type":"Feature","properties":{"name":"Argentina","country":"AR"},"geometry":{"type":"Point","coordinates":[-65.15,-35.1775]}},{"type":"Feature","properties":{"name":"Armenia","country":"AM"},"geometry":{"type":"Point","coordinates":[44.9317,40.2886]}},{"type":"Feature","properties":{"name":"Aruba","country":"AW"},"geometry":{"type":"Point","coordinates":[-69.9742,12.5169]}},{"type":"Feature","properties":{"name":"Ashmore and Cartier Islands","country":"-99"},"geometry":{"type":"Point","coordinates":[123.5864,-12.4326]}},{"type":"Feature","properties":{"name":"Australia","country":"AU"},"geometry":{"type":"Point","coordinates":[134.3541,-25.5736]}},{"type":"Feature","properties":{"name":"Austria","country":"AT"},"geometry":{"type":"Point","coordinates":[14.1307,47.5857]}},{"type":"Feature","properties":{"name":"Azerbaijan","country":"AZ"},"geometry":{"type":"Point","coordinates":[47.6597,40.3458]}},{"type":"Feature","properties":{"name":"Bahrain","country":"BH"},"geometry":{"type":"Point","coordinates":[50.5466,26.0528]}},{"type":"Feature","properties":{"name":"Bajo Nuevo Bank (Petrel Is.)","country":"-99"},"geometry":{"type":"Point","coordinates":[-79.9879,15.795]}},{"type":"Feature","properties":{"name":"Bangladesh","country":"BD"},"geometry":{"type":"Point","coordinates":[90.2273,23.8814]}},{"type":"Feature","properties":{"name":"Barbados","country":"BB"},"geometry":{"type":"Point","coordinates":[-59.5612,13.1811]}},{"type":"Feature","properties":{"name":"Baykonur Cosmodrome","country":"-99"},"geometry":{"type":"Point","coordinates":[63.3839,45.9783]}},{"type":"Feature","properties":{"name":"Belarus","country":"BY"},"geometry":{"type":"Point","coordinates":[28.0336,53.5319]}},{"type":"Feature","properties":{"name":"Belgium","country":"BE"},"geometry":{"type":"Point","coordinates":[4.64,50.6375]}},{"type":"Feature","properties":{"name":"Belize","country":"BZ"},"geometry":{"type":"Point","coordinates":[-88.704,17.2015]}},{"type":"Feature","properties":{"name":"Benin","country":"BJ"},"geometry":{"type":"Point","coordinates":[2.3287,9.6412]}},{"type":"Feature","properties":{"name":"Bermuda","country":"BM"},"geometry":{"type":"Point","coordinates":[-64.7618,32.3109]}},{"type":"Feature","properties":{"name":"Bhutan","country":"BT"},"geometry":{"type":"Point","coordinates":[90.4067,27.4215]}},{"type":"Feature","properties":{"name":"Bir Tawil","country":"-99"},"geometry":{"type":"Point","coordinates":[33.682,21.8799]}},{"type":"Feature","properties":{"name":"Bolivia","country":"BO"},"geometry":{"type":"Point","coordinates":[-64.6848,-16.7069]}},{"type":"Feature","properties":{"name":"Bosnia and Herzegovina","country":"BA"},"geometry":{"type":"Point","coordinates":[17.7734,44.1717]}},{"type":"Feature","properties":{"name":"Botswana","country":"BW"},"geometry":{"type":"Point","coordinates":[23.799,-22.1858]}},{"type":"Feature","properties":{"name":"Brazil","country":"BR"},"geometry":{"type":"Point","coordinates":[-53.1146,-10.8385]}},{"type":"Feature","properties":{"name":"Brazilian Island","country":"-99"},"geometry":{"type":"Point","coordinates":[-57.623,-30.188]}},{"type":"Feature","properties":{"name":"British Indian Ocean Territory","country":"IO"},"geometry":{"type":"Point","coordinates":[72.4262,-7.3468]}},{"type":"Feature","properties":{"name":"British Virgin Islands","country":"VG"},"geometry":{"type":"Point","coordinates":[-64.6217,18.4241]}},{"type":"Feature","properties":{"name":"Brunei","country":"BN"},"geometry":{"type":"Point","coordinates":[114.598,4.4933]}},{"type":"Feature","properties":{"name":"Bulgaria","country":"BG"},"geometry":{"type":"Point","coordinates":[25.2175,42.7685]}},{"type":"Feature","properties":{"name":"Burkina Faso","country":"BF"},"geometry":{"type":"Point","coordinates":[-1.7555,12.2696]}},{"type":"Feature","properties":{"name":"Burundi","country":"BI"},"geometry":{"type":"Point","coordinates":[29.8751,-3.3574]}},{"type":"Feature","properties":{"name":"Cabo Verde","country":"CV"},"geometry":{"type":"Point","coordinates":[-23.6368,15.0818]}},{"type":"Feature","properties":{"name":"Cambodia","country":"KH"},"geometry":{"type":"Point","coordinates":[104.9053,12.718]}},{"type":"Feature","properties":{"name":"Cameroon","country":"CM"},"geometry":{"type":"Point","coordinates":[12.737,5.6931]}},{"type":"Feature","properties":{"name":"Canada","country":"CA"},"geometry":{"type":"Point","coordinates":[-102.3564,57.9394]}},{"type":"Feature","properties":{"name":"Cayman Islands","country":"KY"},"geometry":{"type":"Point","coordinates":[-81.2518,19.3183]}},{"type":"Feature","properties":{"name":"Central African Republic","country":"CF"},"geometry":{"type":"Point","coordinates":[20.4648,6.5663]}},{"type":"Feature","properties":{"name":"Chad","country":"TD"},"geometry":{"type":"Point","coordinates":[18.6463,15.3331]}},{"type":"Feature","properties":{"name":"Chile","country":"CL"},"geometry":{"type":"Point","coordinates":[-71.2457,-35.452]}},{"type":"Feature","properties":{"name":"China","country":"CN"},"geometry":{"type":"Point","coordinates":[103.8064,36.6169]}},{"type":"Feature","properties":{"name":"Clipperton Island","country":"-99"},"geometry":{"type":"Point","coordinates":[-109.2213,10.2974]}},{"type":"Feature","properties":{"name":"Colombia","country":"CO"},"geometry":{"type":"Point","coordinates":[-73.0813,3.9093]}},{"type":"Feature","properties":{"name":"Comoros","country":"KM"},"geometry":{"type":"Point","coordinates":[43.3397,-11.6554]}},{"type":"Feature","properties":{"name":"Cook Islands","country":"CK"},"geometry":{"type":"Point","coordinates":[-159.7865,-21.2193]}},{"type":"Feature","properties":{"name":"Coral Sea Islands","country":"-99"},"geometry":{"type":"Point","coordinates":[154.3904,-21.0293]}},{"type":"Feature","properties":{"name":"Costa Rica","country":"CR"},"geometry":{"type":"Point","coordinates":[-84.1919,9.9748]}},{"type":"Feature","properties":{"name":"Croatia","country":"HR"},"geometry":{"type":"Point","coordinates":[16.419,45.1558]}},{"type":"Feature","properties":{"name":"Cuba","country":"CU"},"geometry":{"type":"Point","coordinates":[-78.9585,21.614]}},{"type":"Feature","properties":{"name":"Curaçao","country":"CW"},"geometry":{"type":"Point","coordinates":[-68.9713,12.1938]}},{"type":"Feature","properties":{"name":"Cyprus","country":"CY"},"geometry":{"type":"Point","coordinates":[32.9541,34.9115]}},{"type":"Feature","properties":{"name":"Cyprus No Mans Area","country":"-99"},"geometry":{"type":"Point","coordinates":[33.2535,35.1012]}},{"type":"Feature","properties":{"name":"Czechia","country":"CZ"},"geometry":{"type":"Point","coordinates":[15.3141,49.7324]}},{"type":"Feature","properties":{"name":"Democratic Republic of the Congo","country":"CD"},"geometry":{"type":"Point","coordinates":[23.6457,-2.8796]}},{"type":"Feature","properties":{"name":"Denmark","country":"DK"},"geometry":{"type":"Point","coordinates":[9.3746,56.227]}},{"type":"Feature","properties":{"name":"Dhekelia Sovereign Base Area","country":"-99"},"geometry":{"type":"Point","coordinates":[33.7925,35.0177]}},{"type":"Feature","properties":{"name":"Djibouti","country":"DJ"},"geometry":{"type":"Point","coordinates":[42.5665,11.7502]}},{"type":"Feature","properties":{"name":"Dominica","country":"DM"},"geometry":{"type":"Point","coordinates":[-61.3569,15.4364]}},{"type":"Feature","properties":{"name":"Dominican Republic","country":"DO"},"geometry":{"type":"Point","coordinates":[-70.5003,18.8992]}},{"type":"Feature","properties":{"name":"East Timor","country":"TL"},"geometry":{"type":"Point","coordinates":[125.9366,-8.8037]}},{"type":"Feature","properties":{"name":"Ecuador","country":"EC"},"geometry":{"type":"Point","coordinates":[-78.3872,-1.4489]}},{"type":"Feature","properties":{"name":"Egypt","country":"EG"},"geometry":{"type":"Point","coordinates":[29.8604,26.4926]}},{"type":"Feature","properties":{"name":"El Salvador","country":"SV"},"geometry":{"type":"Point","coordinates":[-88.8723,13.7365]}},{"type":"Feature","properties":{"name":"Equatorial Guinea","country":"GQ"},"geometry":{"type":"Point","coordinates":[10.4674,1.5652]}},{"type":"Feature","properties":{"name":"Eritrea","country":"ER"},"geometry":{"type":"Point","coordinates":[38.8448,15.3551]}},{"type":"Feature","properties":{"name":"Estonia","country":"EE"},"geometry":{"type":"Point","coordinates":[25.8314,58.6842]}},{"type":"Feature","properties":{"name":"Ethiopia","country":"ET"},"geometry":{"type":"Point","coordinates":[39.6006,8.623]}},{"type":"Feature","properties":{"name":"Falkland Islands","country":"FK"},"geometry":{"type":"Point","coordinates":[-58.7541,-51.7348]}},{"type":"Feature","properties":{"name":"Faroe Islands","country":"FO"},"geometry":{"type":"Point","coordinates":[-6.9872,62.1371]}},{"type":"Feature","properties":{"name":"Federated States of Micronesia","country":"FM"},"geometry":{"type":"Point","coordinates":[158.234,6.8827]}},{"type":"Feature","properties":{"name":"Fiji","country":"FJ"},"geometry":{"type":"Point","coordinates":[177.9752,-17.8241]}},{"type":"Feature","properties":{"name":"Finland","country":"FI"},"geometry":{"type":"Point","coordinates":[26.2878,64.5097]}},{"type":"Feature","properties":{"name":"France","country":"-99"},"geometry":{"type":"Point","coordinates":[2.4522,46.6206]}},{"type":"Feature","properties":{"name":"French Polynesia","country":"PF"},"geometry":{"type":"Point","coordinates":[-149.4205,-17.6639]}},{"type":"Feature","properties":{"name":"French Southern and Antarctic Lands","country":"TF"},"geometry":{"type":"Point","coordinates":[69.5012,-49.3109]}},{"type":"Feature","properties":{"name":"Gabon","country":"GA"},"geometry":{"type":"Point","coordinates":[11.7909,-0.5916]}},{"type":"Feature","properties":{"name":"Gambia","country":"GM"},"geometry":{"type":"Point","coordinates":[-15.3976,13.4497]}},{"type":"Feature","properties":{"name":"Georgia","country":"GE"},"geometry":{"type":"Point","coordinates":[43.5075,42.1688]}},{"type":"Feature","properties":{"name":"Germany","country":"DE"},"geometry":{"type":"Point","coordinates":[10.3708,51.0871]}},{"type":"Feature","properties":{"name":"Ghana","country":"GH"},"geometry":{"type":"Point","coordinates":[-1.2165,7.954]}},{"type":"Feature","properties":{"name":"Gibraltar","country":"GI"},"geometry":{"type":"Point","coordinates":[-5.3467,36.1295]}},{"type":"Feature","properties":{"name":"Greece","country":"GR"},"geometry":{"type":"Point","coordinates":[22.5819,39.475]}},{"type":"Feature","properties":{"name":"Greenland","country":"GL"},"geometry":{"type":"Point","coordinates":[-41.4354,74.7593]}},{"type":"Feature","properties":{"name":"Grenada","country":"GD"},"geometry":{"type":"Point","coordinates":[-61.679,12.1177]}},{"type":"Feature","properties":{"name":"Guam","country":"GU"},"geometry":{"type":"Point","coordinates":[144.7719,13.4438]}},{"type":"Feature","properties":{"name":"Guatemala","country":"GT"},"geometry":{"type":"Point","coordinates":[-90.3602,15.696]}},{"type":"Feature","properties":{"name":"Guernsey","country":"GG"},"geometry":{"type":"Point","coordinates":[-2.5774,49.4634]}},{"type":"Feature","properties":{"name":"Guinea","country":"GN"},"geometry":{"type":"Point","coordinates":[-10.9431,10.4346]}},{"type":"Feature","properties":{"name":"Guinea-Bissau","country":"GW"},"geometry":{"type":"Point","coordinates":[-14.929,12.0569]}},{"type":"Feature","properties":{"name":"Guyana","country":"GY"},"geometry":{"type":"Point","coordinates":[-58.9803,4.7928]}},{"type":"Feature","properties":{"name":"Haiti","country":"HT"},"geometry":{"type":"Point","coordinates":[-72.6774,18.9351]}},{"type":"Feature","properties":{"name":"Heard Island and McDonald Islands","country":"HM"},"geometry":{"type":"Point","coordinates":[73.5052,-53.0888]}},{"type":"Feature","properties":{"name":"Honduras","country":"HN"},"geometry":{"type":"Point","coordinates":[-86.6252,14.8184]}},{"type":"Feature","properties":{"name":"Hong Kong S.A.R.","country":"HK"},"geometry":{"type":"Point","coordinates":[114.1608,22.4245]}},{"type":"Feature","properties":{"name":"Hungary","country":"HU"},"geometry":{"type":"Point","coordinates":[19.3968,47.1632]}},{"type":"Feature","properties":{"name":"Iceland","country":"IS"},"geometry":{"type":"Point","coordinates":[-18.5964,64.9984]}},{"type":"Feature","properties":{"name":"India","country":"IN"},"geometry":{"type":"Point","coordinates":[79.5777,22.9133]}},{"type":"Feature","properties":{"name":"Indian Ocean Territories","country":"-99"},"geometry":{"type":"Point","coordinates":[105.6625,-10.4925]}},{"type":"Feature","properties":{"name":"Indonesia","country":"ID"},"geometry":{"type":"Point","coordinates":[114.0188,-0.1914]}},{"type":"Feature","properties":{"name":"Iran","country":"IR"},"geometry":{"type":"Point","coordinates":[54.2756,32.5768]}},{"type":"Feature","properties":{"name":"Iraq","country":"IQ"},"geometry":{"type":"Point","coordinates":[43.745,33.0398]}},{"type":"Feature","properties":{"name":"Ireland","country":"IE"},"geometry":{"type":"Point","coordinates":[-8.1383,53.1767]}},{"type":"Feature","properties":{"name":"Isle of Man","country":"IM"},"geometry":{"type":"Point","coordinates":[-4.5337,54.2291]}},{"type":"Feature","properties":{"name":"Israel","country":"IL"},"geometry":{"type":"Point","coordinates":[34.997,31.4476]}},{"type":"Feature","properties":{"name":"Italy","country":"IT"},"geometry":{"type":"Point","coordinates":[12.155,43.5231]}},{"type":"Feature","properties":{"name":"Ivory Coast","country":"CI"},"geometry":{"type":"Point","coordinates":[-5.5695,7.6285]}},{"type":"Feature","properties":{"name":"Jamaica","country":"JM"},"geometry":{"type":"Point","coordinates":[-77.3188,18.1552]}},{"type":"Feature","properties":{"name":"Japan","country":"JP"},"geometry":{"type":"Point","coordinates":[137.9725,36.6505]}},{"type":"Feature","properties":{"name":"Jersey","country":"JE"},"geometry":{"type":"Point","coordinates":[-2.1274,49.2211]}},{"type":"Feature","properties":{"name":"Jordan","country":"JO"},"geometry":{"type":"Point","coordinates":[36.7709,31.2456]}},{"type":"Feature","properties":{"name":"Kazakhstan","country":"KZ"},"geometry":{"type":"Point","coordinates":[67.2893,48.156]}},{"type":"Feature","properties":{"name":"Kenya","country":"KE"},"geometry":{"type":"Point","coordinates":[37.8215,0.5515]}},{"type":"Feature","properties":{"name":"Kiribati","country":"KI"},"geometry":{"type":"Point","coordinates":[-157.3707,1.8498]}},{"type":"Feature","properties":{"name":"Kosovo","country":"-99"},"geometry":{"type":"Point","coordinates":[20.8737,42.5729]}},{"type":"Feature","properties":{"name":"Kuwait","country":"KW"},"geometry":{"type":"Point","coordinates":[47.565,29.3201]}},{"type":"Feature","properties":{"name":"Kyrgyzstan","country":"KG"},"geometry":{"type":"Point","coordinates":[74.5318,41.4577]}},{"type":"Feature","properties":{"name":"Laos","country":"LA"},"geometry":{"type":"Point","coordinates":[103.7379,18.5023]}},{"type":"Feature","properties":{"name":"Latvia","country":"LV"},"geometry":{"type":"Point","coordinates":[24.9086,56.8518]}},{"type":"Feature","properties":{"name":"Lebanon","country":"LB"},"geometry":{"type":"Point","coordinates":[35.8798,33.9201]}},{"type":"Feature","properties":{"name":"Lesotho","country":"LS"},"geometry":{"type":"Point","coordinates":[28.2286,-29.5797]}},{"type":"Feature","properties":{"name":"Liberia","country":"LR"},"geometry":{"type":"Point","coordinates":[-9.3199,6.4522]}},{"type":"Feature","properties":{"name":"Libya","country":"LY"},"geometry":{"type":"Point","coordinates":[18.0096,27.0303]}},{"type":"Feature","properties":{"name":"Liechtenstein","country":"LI"},"geometry":{"type":"Point","coordinates":[9.5409,47.1382]}},{"type":"Feature","properties":{"name":"Lithuania","country":"LT"},"geometry":{"type":"Point","coordinates":[23.8941,55.3267]}},{"type":"Feature","properties":{"name":"Luxembourg","country":"LU"},"geometry":{"type":"Point","coordinates":[6.0718,49.7668]}},{"type":"Feature","properties":{"name":"Macao S.A.R","country":"MO"},"geometry":{"type":"Point","coordinates":[113.5565,22.1372]}},{"type":"Feature","properties":{"name":"Madagascar","country":"MG"},"geometry":{"type":"Point","coordinates":[46.7041,-19.3769]}},{"type":"Feature","properties":{"name":"Malawi","country":"MW"},"geometry":{"type":"Point","coordinates":[34.2893,-13.2192]}},{"type":"Feature","properties":{"name":"Malaysia","country":"MY"},"geometry":{"type":"Point","coordinates":[114.7213,3.6148]}},{"type":"Feature","properties":{"name":"Maldives","country":"MV"},"geometry":{"type":"Point","coordinates":[73.5076,4.1908]}},{"type":"Feature","properties":{"name":"Mali","country":"ML"},"geometry":{"type":"Point","coordinates":[-3.5391,17.3442]}},{"type":"Feature","properties":{"name":"Malta","country":"MT"},"geometry":{"type":"Point","coordinates":[14.4414,35.8906]}},{"type":"Feature","properties":{"name":"Marshall Islands","country":"MH"},"geometry":{"type":"Point","coordinates":[171.2058,7.0995]}},{"type":"Feature","properties":{"name":"Mauritania","country":"MR"},"geometry":{"type":"Point","coordinates":[-10.3421,20.2563]}},{"type":"Feature","properties":{"name":"Mauritius","country":"MU"},"geometry":{"type":"Point","coordinates":[57.5696,-20.2793]}},{"type":"Feature","properties":{"name":"Mexico","country":"MX"},"geometry":{"type":"Point","coordinates":[-102.5105,23.9424]}},{"type":"Feature","properties":{"name":"Moldova","country":"MD"},"geometry":{"type":"Point","coordinates":[28.4614,47.1951]}},{"type":"Feature","properties":{"name":"Monaco","country":"MC"},"geometry":{"type":"Point","coordinates":[7.399,43.7398]}},{"type":"Feature","properties":{"name":"Mongolia","country":"MN"},"geometry":{"type":"Point","coordinates":[103.0563,46.8258]}},{"type":"Feature","properties":{"name":"Montenegro","country":"ME"},"geometry":{"type":"Point","coordinates":[19.2385,42.7858]}},{"type":"Feature","properties":{"name":"Montserrat","country":"MS"},"geometry":{"type":"Point","coordinates":[-62.1874,16.7375]}},{"type":"Feature","properties":{"name":"Morocco","country":"MA"},"geometry":{"type":"Point","coordinates":[-8.3964,29.8417]}},{"type":"Feature","properties":{"name":"Mozambique","country":"MZ"},"geometry":{"type":"Point","coordinates":[35.5372,-17.2678]}},{"type":"Feature","properties":{"name":"Myanmar","country":"MM"},"geometry":{"type":"Point","coordinates":[96.4888,21.2138]}},{"type":"Feature","properties":{"name":"Namibia","country":"NA"},"geometry":{"type":"Point","coordinates":[17.2111,-22.1292]}},{"type":"Feature","properties":{"name":"Nauru","country":"NR"},"geometry":{"type":"Point","coordinates":[166.9331,-0.5208]}},{"type":"Feature","properties":{"name":"Nepal","country":"NP"},"geometry":{"type":"Point","coordinates":[83.9163,28.2479]}},{"type":"Feature","properties":{"name":"Netherlands","country":"NL"},"geometry":{"type":"Point","coordinates":[5.6393,52.2823]}},{"type":"Feature","properties":{"name":"New Caledonia","country":"NC"},"geometry":{"type":"Point","coordinates":[165.487,-21.3256]}},{"type":"Feature","properties":{"name":"New Zealand","country":"NZ"},"geometry":{"type":"Point","coordinates":[170.52,-43.9842]}},{"type":"Feature","properties":{"name":"Nicaragua","country":"NI"},"geometry":{"type":"Point","coordinates":[-85.0343,12.8452]}},{"type":"Feature","properties":{"name":"Niger","country":"NE"},"geometry":{"type":"Point","coordinates":[9.386,17.4185]}},{"type":"Feature","properties":{"name":"Nigeria","country":"NG"},"geometry":{"type":"Point","coordinates":[8.0915,9.597]}},{"type":"Feature","properties":{"name":"Niue","country":"NU"},"geometry":{"type":"Point","coordinates":[-169.8693,-19.0489]}},{"type":"Feature","properties":{"name":"Norfolk Island","country":"NF"},"geometry":{"type":"Point","coordinates":[167.9552,-29.035]}},{"type":"Feature","properties":{"name":"North Korea","country":"KP"},"geometry":{"type":"Point","coordinates":[127.1867,40.1522]}},{"type":"Feature","properties":{"name":"North Macedonia","country":"MK"},"geometry":{"type":"Point","coordinates":[21.6838,41.595]}},{"type":"Feature","properties":{"name":"Northern Cyprus","country":"-99"},"geometry":{"type":"Point","coordinates":[33.5995,35.2766]}},{"type":"Feature","properties":{"name":"Northern Mariana Islands","country":"MP"},"geometry":{"type":"Point","coordinates":[145.7414,15.1837]}},{"type":"Feature","properties":{"name":"Norway","country":"-99"},"geometry":{"type":"Point","coordinates":[14.0215,64.2388]}},{"type":"Feature","properties":{"name":"Oman","country":"OM"},"geometry":{"type":"Point","coordinates":[56.0859,20.5727]}},{"type":"Feature","properties":{"name":"Pakistan","country":"PK"},"geometry":{"type":"Point","coordinates":[69.3414,29.9487]}},{"type":"Feature","properties":{"name":"Palau","country":"PW"},"geometry":{"type":"Point","coordinates":[134.5801,7.5138]}},{"type":"Feature","properties":{"name":"Palestine","country":"PS"},"geometry":{"type":"Point","coordinates":[35.2504,31.9484]}},{"type":"Feature","properties":{"name":"Panama","country":"PA"},"geometry":{"type":"Point","coordinates":[-80.1071,8.5225]}},{"type":"Feature","properties":{"name":"Papua New Guinea","country":"PG"},"geometry":{"type":"Point","coordinates":[144.2498,-6.6121]}},{"type":"Feature","properties":{"name":"Paraguay","country":"PY"},"geometry":{"type":"Point","coordinates":[-58.3984,-23.2275]}},{"type":"Feature","properties":{"name":"Peru","country":"PE"},"geometry":{"type":"Point","coordinates":[-74.3779,-9.1543]}},{"type":"Feature","properties":{"name":"Philippines","country":"PH"},"geometry":{"type":"Point","coordinates":[121.418,15.9534]}},{"type":"Feature","properties":{"name":"Pitcairn Islands","country":"PN"},"geometry":{"type":"Point","coordinates":[-128.3171,-24.366]}},{"type":"Feature","properties":{"name":"Poland","country":"PL"},"geometry":{"type":"Point","coordinates":[19.3943,52.1248]}},{"type":"Feature","properties":{"name":"Portugal","country":"PT"},"geometry":{"type":"Point","coordinates":[-7.9747,39.6808]}},{"type":"Feature","properties":{"name":"Puerto Rico","country":"PR"},"geometry":{"type":"Point","coordinates":[-66.4811,18.2259]}},{"type":"Feature","properties":{"name":"Qatar","country":"QA"},"geometry":{"type":"Point","coordinates":[51.1868,25.3131]}},{"type":"Feature","properties":{"name":"Republic of Serbia","country":"RS"},"geometry":{"type":"Point","coordinates":[20.7893,44.2221]}},{"type":"Feature","properties":{"name":"Republic of the Congo","country":"CG"},"geometry":{"type":"Point","coordinates":[15.2183,-0.8389]}},{"type":"Feature","properties":{"name":"Romania","country":"RO"},"geometry":{"type":"Point","coordinates":[24.9729,45.8535]}},{"type":"Feature","properties":{"name":"Russia","country":"RU"},"geometry":{"type":"Point","coordinates":[99.0708,61.6611]}},{"type":"Feature","properties":{"name":"Rwanda","country":"RW"},"geometry":{"type":"Point","coordinates":[29.9191,-1.9928]}},{"type":"Feature","properties":{"name":"Saint Barthelemy","country":"BL"},"geometry":{"type":"Point","coordinates":[-62.8326,17.9056]}},{"type":"Feature","properties":{"name":"Saint Helena","country":"SH"},"geometry":{"type":"Point","coordinates":[-5.7174,-15.9591]}},{"type":"Feature","properties":{"name":"Saint Kitts and Nevis","country":"KN"},"geometry":{"type":"Point","coordinates":[-62.758,17.3323]}},{"type":"Feature","properties":{"name":"Saint Lucia","country":"LC"},"geometry":{"type":"Point","coordinates":[-60.9703,13.9027]}},{"type":"Feature","properties":{"name":"Saint Martin","country":"MF"},"geometry":{"type":"Point","coordinates":[-63.0551,18.0776]}},{"type":"Feature","properties":{"name":"Saint Pierre and Miquelon","country":"PM"},"geometry":{"type":"Point","coordinates":[-56.3244,46.9516]}},{"type":"Feature","properties":{"name":"Saint Vincent and the Grenadines","country":"VC"},"geometry":{"type":"Point","coordinates":[-61.194,13.2565]}},{"type":"Feature","properties":{"name":"Samoa","country":"WS"},"geometry":{"type":"Point","coordinates":[-172.4382,-13.6305]}},{"type":"Feature","properties":{"name":"San Marino","country":"SM"},"geometry":{"type":"Point","coordinates":[12.4422,43.9365]}},{"type":"Feature","properties":{"name":"Saudi Arabia","country":"SA"},"geometry":{"type":"Point","coordinates":[44.5386,24.1241]}},{"type":"Feature","properties":{"name":"Scarborough Reef","country":"-99"},"geometry":{"type":"Point","coordinates":[117.7538,15.1521]}},{"type":"Feature","properties":{"name":"Senegal","country":"SN"},"geometry":{"type":"Point","coordinates":[-14.4713,14.3678]}},{"type":"Feature","properties":{"name":"Serranilla Bank","country":"-99"},"geometry":{"type":"Point","coordinates":[-78.6381,15.8645]}},{"type":"Feature","properties":{"name":"Seychelles","country":"SC"},"geometry":{"type":"Point","coordinates":[55.4671,-4.6761]}},{"type":"Feature","properties":{"name":"Siachen Glacier","country":"-99"},"geometry":{"type":"Point","coordinates":[77.18,35.3911]}},{"type":"Feature","properties":{"name":"Sierra Leone","country":"SL"},"geometry":{"type":"Point","coordinates":[-11.7873,8.5719]}},{"type":"Feature","properties":{"name":"Singapore","country":"SG"},"geometry":{"type":"Point","coordinates":[103.8135,1.3589]}},{"type":"Feature","properties":{"name":"Sint Maarten","country":"SX"},"geometry":{"type":"Point","coordinates":[-63.0701,18.0406]}},{"type":"Feature","properties":{"name":"Slovakia","country":"SK"},"geometry":{"type":"Point","coordinates":[19.4804,48.7049]}},{"type":"Feature","properties":{"name":"Slovenia","country":"SI"},"geometry":{"type":"Point","coordinates":[14.8081,46.1161]}},{"type":"Feature","properties":{"name":"Solomon Islands","country":"SB"},"geometry":{"type":"Point","coordinates":[160.1703,-9.6226]}},{"type":"Feature","properties":{"name":"Somalia","country":"SO"},"geometry":{"type":"Point","coordinates":[45.7061,4.7488]}},{"type":"Feature","properties":{"name":"Somaliland","country":"-99"},"geometry":{"type":"Point","coordinates":[46.2548,9.731]}},{"type":"Feature","properties":{"name":"South Africa","country":"ZA"},"geometry":{"type":"Point","coordinates":[25.1592,-29.0092]}},{"type":"Feature","properties":{"name":"South Georgia and the Islands","country":"GS"},"geometry":{"type":"Point","coordinates":[-36.6837,-54.3677]}},{"type":"Feature","properties":{"name":"South Korea","country":"KR"},"geometry":{"type":"Point","coordinates":[127.8672,36.4598]}},{"type":"Feature","properties":{"name":"South Sudan","country":"SS"},"geometry":{"type":"Point","coordinates":[30.3011,7.2835]}},{"type":"Feature","properties":{"name":"Southern Patagonian Ice Field","country":"-99"},"geometry":{"type":"Point","coordinates":[-73.3188,-49.5123]}},{"type":"Feature","properties":{"name":"Spain","country":"ES"},"geometry":{"type":"Point","coordinates":[-3.5629,40.3895]}},{"type":"Feature","properties":{"name":"Spratly Islands","country":"-99"},"geometry":{"type":"Point","coordinates":[115.8222,10.7297]}},{"type":"Feature","properties":{"name":"Sri Lanka","country":"LK"},"geometry":{"type":"Point","coordinates":[80.7052,7.6094]}},{"type":"Feature","properties":{"name":"Sudan","country":"SD"},"geometry":{"type":"Point","coordinates":[29.9353,15.9802]}},{"type":"Feature","properties":{"name":"Suriname","country":"SR"},"geometry":{"type":"Point","coordinates":[-55.9111,4.1312]}},{"type":"Feature","properties":{"name":"Sweden","country":"SE"},"geometry":{"type":"Point","coordinates":[16.744,62.8302]}},{"type":"Feature","properties":{"name":"Switzerland","country":"CH"},"geometry":{"type":"Point","coordinates":[8.2154,46.799]}},{"type":"Feature","properties":{"name":"Syria","country":"SY"},"geometry":{"type":"Point","coordinates":[38.5046,35.023]}},{"type":"Feature","properties":{"name":"São Tomé and Principe","country":"ST"},"geometry":{"type":"Point","coordinates":[6.6076,0.2356]}},{"type":"Feature","properties":{"name":"Taiwan","country":"CN-TW"},"geometry":{"type":"Point","coordinates":[120.9643,23.7533]}},{"type":"Feature","properties":{"name":"Tajikistan","country":"TJ"},"geometry":{"type":"Point","coordinates":[71.0163,38.5282]}},{"type":"Feature","properties":{"name":"Thailand","country":"TH"},"geometry":{"type":"Point","coordinates":[101.0087,15.1372]}},{"type":"Feature","properties":{"name":"The Bahamas","country":"BS"},"geometry":{"type":"Point","coordinates":[-78.0397,24.7038]}},{"type":"Feature","properties":{"name":"Togo","country":"TG"},"geometry":{"type":"Point","coordinates":[0.9623,8.5268]}},{"type":"Feature","properties":{"name":"Tonga","country":"TO"},"geometry":{"type":"Point","coordinates":[-175.2046,-21.1719]}},{"type":"Feature","properties":{"name":"Trinidad and Tobago","country":"TT"},"geometry":{"type":"Point","coordinates":[-61.2939,10.4219]}},{"type":"Feature","properties":{"name":"Tunisia","country":"TN"},"geometry":{"type":"Point","coordinates":[9.5488,34.1198]}},{"type":"Feature","properties":{"name":"Turkey","country":"TR"},"geometry":{"type":"Point","coordinates":[35.4235,38.9896]}},{"type":"Feature","properties":{"name":"Turkmenistan","country":"TM"},"geometry":{"type":"Point","coordinates":[59.3775,39.1159]}},{"type":"Feature","properties":{"name":"Turks and Caicos Islands","country":"TC"},"geometry":{"type":"Point","coordinates":[-71.7419,21.8093]}},{"type":"Feature","properties":{"name":"Tuvalu","country":"TV"},"geometry":{"type":"Point","coordinates":[179.205,-8.5041]}},{"type":"Feature","properties":{"name":"US Naval Base Guantanamo Bay","country":"-99"},"geometry":{"type":"Point","coordinates":[-75.1237,19.9234]}},{"type":"Feature","properties":{"name":"Uganda","country":"UG"},"geometry":{"type":"Point","coordinates":[32.367,1.2757]}},{"type":"Feature","properties":{"name":"Ukraine","country":"UA"},"geometry":{"type":"Point","coordinates":[31.2552,49.161]}},{"type":"Feature","properties":{"name":"United Arab Emirates","country":"AE"},"geometry":{"type":"Point","coordinates":[54.3101,23.9039]}},{"type":"Feature","properties":{"name":"United Kingdom","country":"GB"},"geometry":{"type":"Point","coordinates":[-2.5187,53.9476]}},{"type":"Feature","properties":{"name":"United Republic of Tanzania","country":"TZ"},"geometry":{"type":"Point","coordinates":[34.7985,-6.2756]}},{"type":"Feature","properties":{"name":"United States Minor Outlying Islands","country":"UM"},"geometry":{"type":"Point","coordinates":[-162.0765,5.8808]}},{"type":"Feature","properties":{"name":"United States Virgin Islands","country":"VI"},"geometry":{"type":"Point","coordinates":[-64.7626,17.7393]}},{"type":"Feature","properties":{"name":"United States of America","country":"US"},"geometry":{"type":"Point","coordinates":[-99.1445,39.528]}},{"type":"Feature","properties":{"name":"Uruguay","country":"UY"},"geometry":{"type":"Point","coordinates":[-56.0171,-32.7983]}},{"type":"Feature","properties":{"name":"Uzbekistan","country":"UZ"},"geometry":{"type":"Point","coordinates":[63.1324,41.7577]}},{"type":"Feature","properties":{"name":"Vanuatu","country":"VU"},"geometry":{"type":"Point","coordinates":[166.8538,-15.2315]}},{"type":"Feature","properties":{"name":"Vatican","country":"VA"},"geometry":{"type":"Point","coordinates":[12.4534,41.9033]}},{"type":"Feature","properties":{"name":"Venezuela","country":"VE"},"geometry":{"type":"Point","coordinates":[-66.1837,7.1174]}},{"type":"Feature","properties":{"name":"Vietnam","country":"VN"},"geometry":{"type":"Point","coordinates":[106.3007,16.6577]}},{"type":"Feature","properties":{"name":"Wallis and Futuna","country":"WF"},"geometry":{"type":"Point","coordinates":[-176.1619,-13.2819]}},{"type":"Feature","properties":{"name":"Western Sahara","country":"EH"},"geometry":{"type":"Point","coordinates":[-12.215,24.2326]}},{"type":"Feature","properties":{"name":"Yemen","country":"YE"},"geometry":{"type":"Point","coordinates":[47.5419,15.9351]}},{"type":"Feature","properties":{"name":"Zambia","country":"ZM"},"geometry":{"type":"Point","coordinates":[27.7742,-13.4601]}},{"type":"Feature","properties":{"name":"Zimbabwe","country":"ZW"},"geometry":{"type":"Point","coordinates":[29.8519,-19.0025]}},{"type":"Feature","properties":{"name":"eSwatini","country":"SZ"},"geometry":{"type":"Point","coordinates":[31.48,-26.5619]}}]}